[
    {
        "Altitude(m)": 624790.8041520839,
        "Argument of Periapsis(deg)": 0.0,
        "Eccentricity": 0.0,
        "Inclination(deg)": 60.0,
        "Latitude(deg)": -59.14714314905839,
        "Longitude(deg)": 6.03479476405812,
        "Mean Anomaly(deg)": -81.8182,
        "RAAN(deg)": 180.0,
        "Satellite Name": "Test1 809",
        "Satellite Number": 809,
        "Semi-Major Axis(m)": 6980739.136638005,
        "Time(s)": 0
    },
    {
        "Altitude(m)": 624737.4585143572,
        "Argument of Periapsis(deg)": 0.00010418945913296404,
        "Eccentricity": 0.0,
        "Inclination(deg)": 60.0,
        "Latitude(deg)": -58.99459607777733,
        "Longitude(deg)": 7.154296519997445,
        "Mean Anomaly(deg)": -81.19809385453816,
        "RAAN(deg)": 179.99957995086024,
        "Satellite Name": "Test1 809",
        "Satellite Number": 809,
        "Semi-Major Axis(m)": 6980739.136638005,
        "Time(s)": 10
    }
]